NORAD_CAT_ID,OBJECT_NAME,OBJECT_TYPE,EPOCH,MEAN_MOTION,ECCENTRICITY,INCLINATION,RA_OF_ASC_NODE,ARG_OF_PERICENTER,MEAN_ANOMALY,BSTAR,MEAN_MOTION_DOT,MEAN_MOTION_DDOT,TLE_LINE0,TLE_LINE1,TLE_LINE2,SEMIMAJOR_AXIS,PERIOD,APOGEE,PERIGEE,DECAYED
54181.0,STARLINK-5227,PAYLOAD,2022-11-14 14:00:01,15.73269776,0.0002716,53.2173,57.0958,28.3101,17.3324,-0.00036096,-0.00051135,0.0,0 STARLINK-5227,1 54181U 22141AA  22318.58334491 -.00051135  00000-0 -36096-3 0  9996,2 54181  53.2173  57.0958 0002716  28.3101  17.3324 15.73269776  1304,6727.696,91.529,351.38800000000015,347.7340000000001,0.0
54181.0,STARLINK-5227,PAYLOAD,2022-11-14 22:00:00,15.73301145,0.0002705,53.2171,55.4436,25.8125,108.8095,-0.0012115,-0.00168065,0.0,0 STARLINK-5227,1 54181U 22141AA  22318.91667824 -.00168065  00000-0 -12115-2 0  9998,2 54181  53.2171  55.4436 0002705  25.8125 108.8095 15.73301145  3075,6727.607,91.527,351.292,347.652,0.0
54181.0,STARLINK-5227,PAYLOAD,2022-11-15 06:00:00,15.73212767,0.0002422,53.2178,53.7946,21.0679,202.5045,-9.7251e-05,-0.00014257,0.0,0 STARLINK-5227,1 54181U 22141AA  22319.25001157 -.00014257  00000-0 -97251-4 0  9996,2 54181  53.2178  53.7946 0002422  21.0679 202.5045 15.73212767  3121,6727.859,91.532,351.353,348.094,0.0
54181.0,STARLINK-5227,PAYLOAD,2022-11-15 14:00:01,15.73177233,0.0002747,53.2177,52.1472,17.6097,294.9029,0.00043612,0.00060979,0.0,0 STARLINK-5227,1 54181U 22141AA  22319.58334491  .00060979  00000-0  43612-3 0  9993,2 54181  53.2177  52.1472 0002747  17.6097 294.9029 15.73177233  1305,6727.96,91.535,351.673,347.977,0.0
54181.0,STARLINK-5227,PAYLOAD,2022-11-15 22:00:00,15.73262544,0.0002668,53.2174,50.4961,14.7479,26.6846,-0.00059585,-0.00083659,0.0,0 STARLINK-5227,1 54181U 22141AA  22319.91667824 -.00083659  00000-0 -59585-3 0  9997,2 54181  53.2174  50.4961 0002668  14.7479  26.6846 15.73262544  3231,6727.717,91.53,351.37699999999984,347.787,0.0
54181.0,STARLINK-5227,PAYLOAD,2022-11-16 14:00:01,15.73148439,0.0002819,53.2175,47.1945,20.9489,198.4627,0.00059834,0.0008402,0.0,0 STARLINK-5227,1 54181U 22141AA  22320.58335648  .00084020  00000-0  59834-3 0  9996,2 54181  53.2175  47.1945 0002819  20.9489 198.4627 15.73148439  3337,6728.042,91.536,351.80400000000014,348.011,0.0
54181.0,STARLINK-5227,PAYLOAD,2022-11-16 22:00:08,15.73205472,0.0002779,53.2173,45.5424,20.93,287.78,-1.7563e-05,-3.088e-05,0.0,0 STARLINK-5227,1 54181U 22141AA  22320.91675926 -.00003088  00000-0 -17563-4 0  9990,2 54181  53.2173  45.5424 0002779  20.9300 287.7800 15.73205472  1307,6727.88,91.533,351.61400000000015,347.875,0.0
54181.0,STARLINK-5227,PAYLOAD,2022-11-17 04:00:00,15.73164785,0.0002702,53.2177,44.3097,15.5856,269.4436,0.00070163,0.00098876,0.0,0 STARLINK-5227,1 54181U 22141AA  22321.16667824  .00098876  00000-0  70163-3 0  9997,2 54181  53.2177  44.3097 0002702  15.5856 269.4436 15.73164785  3424,6727.996,91.535,351.67800000000005,348.043,0.0
54181.0,STARLINK-5227,PAYLOAD,2022-11-17 12:00:00,15.73225607,0.0002917,53.2179,42.6621,14.2663,359.6801,-0.00047469,-0.00066805,0.0,0 STARLINK-5227,1 54181U 22141AA  22321.50001157 -.00066805  00000-0 -47469-3 0  9998,2 54181  53.2179  42.6621 0002917  14.2663 359.6801 15.73225607  3485,6727.821999999999,91.532,351.65,347.725,0.0
54181.0,STARLINK-5227,PAYLOAD,2022-11-17 14:00:01,15.73177514,0.0002996,53.2181,42.2501,12.9786,113.2155,0.00017871,0.00024512,0.0,0 STARLINK-5227,1 54181U 22141AA  22321.58334491  .00024512  00000-0  17871-3 0  9997,2 54181  53.2181  42.2501 0002996  12.9786 113.2155 15.73177514  1307,6727.959,91.534,351.84,347.809,0.0
54181.0,STARLINK-5227,PAYLOAD,2022-11-17 20:00:01,15.73235426,0.0003003,53.2177,41.0123,10.800999999999998,92.0666,-0.00044047,-0.00062095,0.0,0 STARLINK-5227,1 54181U 22141AA  22321.83334491 -.00062095  00000-0 -44047-3 0  9990,2 54181  53.2177  41.0123 0003003  10.8010  92.0666 15.73235426  3531,6727.794,91.531,351.68,347.639,0.0
54181.0,STARLINK-5227,PAYLOAD,2022-11-17 22:00:00,15.73246036,0.00029,53.2178,40.5995,10.5075,204.5937,-0.00072076,-0.00100798,0.0,0 STARLINK-5227,1 54181U 22141AA  22321.91667824 -.00100798  00000-0 -72076-3 0  9994,2 54181  53.2178  40.5995 0002900  10.5075 204.5937 15.73246036  1309,6727.764,91.531,351.58,347.67800000000005,0.0
54181.0,STARLINK-5227,PAYLOAD,2022-11-18 14:00:01,15.73191598,0.0003096,53.218,37.302,10.6241,22.3329,0.00049549,0.00069482,0.0,0 STARLINK-5227,1 54181U 22141AA  22322.58334491  .00069482  00000-0  49549-3 0  9990,2 54181  53.2180  37.3020 0003096  10.6241  22.3329 15.73191598  3651,6727.919,91.534,351.867,347.701,0.0
54181.0,STARLINK-5227,PAYLOAD,2022-11-18 20:00:01,15.73277126,0.0003109,53.2172,36.062,6.9962,2.6626,-0.0010194,-0.00141818,0.0,0 STARLINK-5227,1 54181U 22141AA  22322.83334491 -.00141818  00000-0 -10194-2 0  9997,2 54181  53.2172  36.0620 0003109   6.9962   2.6626 15.73277126  3694,6727.675,91.529,351.63199999999995,347.449,0.0
54181.0,STARLINK-5227,PAYLOAD,2022-11-18 22:00:00,15.73282297,0.0003043,53.2175,35.6484,7.557,114.3465,-0.0015288,-0.00210712,0.0,0 STARLINK-5227,1 54181U 22141AA  22322.91667824 -.00210712  00000-0 -15288-2 0  9994,2 54181  53.2175  35.6484 0003043   7.5570 114.3465 15.73282297  1302,6727.661,91.528,351.5730000000001,347.478,0.0
54181.0,STARLINK-5227,PAYLOAD,2022-11-19 06:00:00,15.73257748,0.0002901,53.2185,34.001,6.4676,204.3807,-0.0002315,-0.00033073,0.0,0 STARLINK-5227,1 54181U 22141AA  22323.25001157 -.00033073  00000-0 -23150-3 0  9994,2 54181  53.2185  34.0010 0002901   6.4676 204.3807 15.73257748  3752,6727.731,91.53,351.547,347.644,0.0
54181.0,STARLINK-5227,PAYLOAD,2022-11-19 14:00:01,15.7318207,0.0003297,53.2185,32.3535,5.9048,293.9333,0.00049966,0.0007005,0.0,0 STARLINK-5227,1 54181U 22141AA  22323.58334491  .00070050  00000-0  49966-3 0  9997,2 54181  53.2185  32.3535 0003297   5.9048 293.9333 15.73182070  1303,6727.946,91.534,352.029,347.593,0.0
54181.0,STARLINK-5227,PAYLOAD,2022-11-19 22:00:00,15.73222112,0.0003147,53.2184,30.7025,7.2668,21.5147,-0.00029579,-0.00041979,0.0,0 STARLINK-5227,1 54181U 22141AA  22323.91667824 -.00041979  00000-0 -29579-3 0  9991,2 54181  53.2184  30.7025 0003147   7.2668  21.5147 15.73222112  1305,6727.831999999999,91.532,351.814,347.58,0.0
54181.0,STARLINK-5227,PAYLOAD,2022-11-20 14:00:01,15.73134114,0.0003446,53.2183,27.4055,7.086,199.5667,0.00064762,0.0009102,0.0,0 STARLINK-5227,1 54181U 22141AA  22324.58334491  .00091020  00000-0  64762-3 0  9999,2 54181  53.2183  27.4055 0003446   7.0860 199.5667 15.73134114  3965,6728.083000000001,91.537,352.267,347.63,0.0
54181.0,STARLINK-5227,PAYLOAD,2022-11-20 22:00:00,15.73209546,0.0003288,53.2184,25.7545,9.9319,285.6082,-0.0005035,-0.00070747,0.0,0 STARLINK-5227,1 54181U 22141AA  22324.91667824 -.00070747  00000-0 -50350-3 0  9998,2 54181  53.2184  25.7545 0003288   9.9319 285.6082 15.73209546  4023,6727.868,91.533,351.945,347.521,0.0
54181.0,STARLINK-5227,PAYLOAD,2022-11-21 06:00:00,15.73178416,0.0003347,53.2186,24.105,14.6382,9.8041,0.00022276,0.00030733,0.0,0 STARLINK-5227,1 54181U 22141AA  22325.25001157  .00030733  00000-0  22276-3 0  9992,2 54181  53.2186  24.1050 0003347  14.6382   9.8041 15.73178416  4075,6727.956999999999,91.534,352.074,347.57,0.0
54181.0,STARLINK-5227,PAYLOAD,2022-11-21 14:00:01,15.73177864,0.0003639,53.2186,22.4575,13.8464,99.5187,0.00071918,0.00101467,0.0,0 STARLINK-5227,1 54181U 22141AA  22325.58334491  .00101467  00000-0  71918-3 0  9998,2 54181  53.2186  22.4575 0003639  13.8464  99.5187 15.73177864  1300,6727.958000000001,91.534,352.272,347.375,0.0
54181.0,STARLINK-5227,PAYLOAD,2022-11-21 22:00:00,15.73251332,0.0003469,53.2185,20.8063,12.3616,189.948,-0.00042602,-0.0006014,0.0,0 STARLINK-5227,1 54181U 22141AA  22325.91667824 -.00060140  00000-0 -42602-3 0  9996,2 54181  53.2185  20.8063 0003469  12.3616 189.9480 15.73251332  1300,6727.749,91.53,351.9480000000001,347.28,0.0
54181.0,STARLINK-5227,PAYLOAD,2022-11-22 06:00:02,15.73256355,0.000339,53.2183,19.1571,10.6276,280.7006,-0.00060348,-0.00084704,0.0,0 STARLINK-5227,1 54181U 22141AA  22326.25002315 -.00084704  00000-0 -60348-3 0  9991,2 54181  53.2183  19.1571 0003390  10.6276 280.7006 15.73256355  4227,6727.735,91.53,351.88,347.319,0.0
54181.0,STARLINK-5227,PAYLOAD,2022-11-22 14:00:01,15.73170069,0.0003679,53.2179,17.5094,8.2667,12.0155,0.00041596,0.00058102,0.0,0 STARLINK-5227,1 54181U 22141AA  22326.58335648  .00058102  00000-0  41596-3 0  9990,2 54181  53.2179  17.5094 0003679   8.2667  12.0155 15.73170069  1305,6727.981,91.535,352.321,347.37,0.0
54181.0,STARLINK-5227,PAYLOAD,2022-11-22 20:00:01,15.7322112,0.0003518,53.2179,16.2709,7.3041,349.5955,-0.00049967,-0.00070256,0.0,0 STARLINK-5227,1 54181U 22141AA  22326.83334491 -.00070256  00000-0 -49967-3 0  9999,2 54181  53.2179  16.2709 0003518   7.3041 349.5955 15.73221120  4328,6727.835,91.532,352.06699999999995,347.333,0.0
54181.0,STARLINK-5227,PAYLOAD,2022-11-22 22:00:00,15.73172084,0.0003453,53.218,15.858,6.374,102.7742,0.00013129,0.00017825,0.0,0 STARLINK-5227,1 54181U 22141AA  22326.91667824  .00017825  00000-0  13129-3 0  9999,2 54181  53.2180  15.8580 0003453   6.3740 102.7742 15.73172084  1307,6727.975,91.535,352.163,347.517,0.0
54181.0,STARLINK-5227,PAYLOAD,2022-11-23 06:00:00,15.7320999,0.0003494,53.2181,14.2089,8.068999999999999,189.97,-6.3154e-06,-1.511e-05,0.0,0 STARLINK-5227,1 54181U 22141AA  22327.25001157 -.00001511  00000-0 -63154-5 0  9990,2 54181  53.2181  14.2089 0003494   8.0690 189.9700 15.73209990  4382,6727.8669999999975,91.533,352.082,347.381,0.0
54181.0,STARLINK-5227,PAYLOAD,2022-11-23 14:00:01,15.73177408,0.0003815,53.218,12.5611,6.3467,280.6433,0.00022396,0.00030904,0.0,0 STARLINK-5227,1 54181U 22141AA  22327.58334491  .00030904  00000-0  22396-3 0  9993,2 54181  53.2180  12.5611 0003815   6.3467 280.6433 15.73177408  1302,6727.96,91.534,352.391,347.2580000000001,0.0
